O3B FM5                 
1 39188U 13031A   22217.85014456 -.00000013  00000+0  00000+0 0  9997
2 39188   0.0540  23.0567 0002570 113.2853 223.6784  5.00115217166524
O3B FM4                 
1 39189U 13031B   22217.50643539 -.00000013  00000+0  00000+0 0  9990
2 39189   0.0564 353.6925 0002530 141.6959 224.6321  5.00115755166423
O3B FM2                 
1 39190U 13031C   22213.59836551 -.00000015  00000+0  00000+0 0  9997
2 39190   0.0595 350.0268 0001058 132.1970 237.7855  4.99476808166289
O3B PFM                 
1 39191U 13031D   22217.62413700 -.00000013  00000+0  00000+0 0  9991
2 39191   0.0516  13.5752 0002649 120.4933 225.9534  5.00115655166059
O3B FM3                 
1 40079U 14038A   22217.07921245 -.00000012  00000+0  00000+0 0  9992
2 40079   0.0548   1.6823 0005053 128.4257 229.9365  5.00115350142408
O3B FM7                 
1 40080U 14038B   22217.62495623 -.00000013  00000+0  00000+0 0  9992
2 40080   0.0588 359.4873 0001060 170.9628 189.5521  5.00115400147261
O3B FM6                 
1 40081U 14038C   22217.05165876 -.00000012  00000+0  00000+0 0  9993
2 40081   0.0543   0.7476 0002694 134.4011 224.8732  5.00115347147181
O3B FM8                 
1 40082U 14038D   22217.70527995 -.00000013  00000+0  00000+0 0  9991
2 40082   0.0541 357.2417 0002686 134.0537 228.7279  5.00115617147331
O3B FM10                
1 40348U 14083A   22217.53140168 -.00000013  00000+0  00000+0 0  9990
2 40348   0.0487   8.6753 0002632 125.4082 225.9383  5.00115116139267
O3B FM11                
1 40349U 14083B   22217.54487777 -.00000013  00000+0  00000+0 0  9992
2 40349   0.0532  10.2996 0002255 138.1127 211.6014  5.00115363139288
O3B FM12                
1 40350U 14083C   22217.17229338 -.00000012  00000+0  00000+0 0  9999
2 40350   0.0528   9.4193 0002693 128.5055 222.0960  5.00115234139286
O3B FM9                 
1 40351U 14083D   22217.79890879 -.00000013  00000+0  00000+0 0  9993
2 40351   0.0542  11.0361 0002584 124.5273 224.4574  5.00115549139462
DIAMOND RED             
1 42783U 17036U   22217.83463596  .00005008  00000+0  18486-3 0  9991
2 42783  97.1964 256.9453 0011486 146.7871 213.4092 15.28137352284484
DIAMOND GREEN           
1 42785U 17036W   22218.09631835  .00005282  00000+0  19512-3 0  9990
2 42785  97.1969 257.2618 0011326 147.0180 213.1769 15.28089169284512
DIAMOND BLUE            
1 42786U 17036X   22217.57151576  .00004959  00000+0  18333-3 0  9992
2 42786  97.1967 256.7470 0011318 149.1663 211.0244 15.28093139284518
LEO VANTAGE 1           
1 43113U 18004C   22218.38287972  .00000919  00000+0  79899-4 0  9990
2 43113  99.2460 303.7310 0401651  41.4447 321.6484 14.54003624231498
O3B FM15                
1 43231U 18024A   22217.26518930 -.00000013  00000+0  00000+0 0  9999
2 43231   0.0453   7.7757 0002884 129.1562 223.0908  5.00115953 80380
O3B FM16                
1 43232U 18024B   22217.51845752 -.00000013  00000+0  00000+0 0  9993
2 43232   0.0412   7.9621 0002854 129.5452 222.5149  5.00115830 80326
O3B FM14                
1 43233U 18024C   22217.55804356 -.00000013  00000+0  00000+0 0  9993
2 43233   0.0397   6.9710 0002672 131.6359 221.4135  5.00115246 80330
O3B FM13                
1 43234U 18024D   22217.61153511 -.00000013  00000+0  00000+0 0  9991
2 43234   0.0457  35.4885 0003531 111.2310 213.3029  5.00114936 80454
O3B FM20                
1 44112U 19020A   22217.58476856 -.00000013  00000+0  00000+0 0  9990
2 44112   0.0487   7.8697 0002905 136.8191 215.3306  5.00115376 60953
O3B FM19                
1 44113U 19020B   22210.81524545 -.00000020  00000+0  00000+0 0  9997
2 44113   0.0551  23.5318 0001731 107.7214 228.7598  5.00115059 60689
O3B FM17                
1 44114U 19020C   22217.49219672 -.00000013  00000+0  00000+0 0  9993
2 44114   0.0430 343.8558 0002988 154.4745 221.6926  5.00115504 60900
O3B FM18                
1 44115U 19020D   22216.43928011 -.00000012  00000+0  00000+0 0  9990
2 44115   0.0488   8.3353 0002877 125.2772 226.4115  5.00115700 60960
SALSAT                  
1 46495U 20068K   22217.64255567  .00001267  00000+0  94250-4 0  9997
2 46495  97.7314 158.9679 0018037 109.3261 250.9917 15.04679731101588
